KUIPER-00213            
1 67777U 26030P   26062.60775688  .00022834  00000+0  72475-3 0  9994
2 67777  51.8791 248.7947 0014919  47.0037 313.2196 15.32473115  4150
KUIPER-00214            
1 67778U 26030Q   26062.56663365  .00036285  00000+0  10089-2 0  9995
2 67778  51.8841 248.5387 0000941 202.3850 157.7095 15.36505345  4156
KUIPER-00215            
1 67779U 26030R   26062.59455134  .00026804  00000+0  80583-3 0  9995
2 67779  51.8828 248.7191 0009878  43.0534 317.1222 15.34164337  4158
KUIPER-00218            
1 67780U 26030S   26062.58583348  .00037272  00000+0  10902-2 0  9993
2 67780  51.8830 248.6616 0006400  34.0577 326.0818 15.34888543  4151
KUIPER-00220            
1 67781U 26030T   26062.59143837  .00035964  00000+0  10663-2 0  9990
2 67781  51.8796 248.6916 0008143  39.0718 321.0854 15.34466757  4158
KUIPER-00222            
1 67782U 26030U   26062.61118358  .00017852  00000+0  57226-3 0  9997
2 67782  51.8795 248.8165 0017689  41.2105 319.0211 15.32281049  4157
KUIPER-00223            
1 67783U 26030V   26062.59761239  .00026104  00000+0  78974-3 0  9990
2 67783  51.8813 248.7355 0012149  43.2526 316.9411 15.33956877  4151
KUIPER-00225            
1 67784U 26030W   26062.57774065  .00035897  00000+0  10272-2 0  9995
2 67784  51.8809 248.6045 0003902  23.5564 336.5600 15.35607268  4159
KUIPER-00226            
1 67785U 26030X   26062.62118107 -.00005180  00000+0 -15554-3 0  9994
2 67785  51.8807 248.8811 0019539  55.3612 304.9211 15.31335086  4150
KUIPER-00259            
1 67786U 26030Y   26062.58774840  .00035370  00000+0  10384-2 0  9999
2 67786  51.8802 248.6680 0008040  32.6457 327.5024 15.34786214  4157
KUIPER-00260            
1 67787U 26030Z   26062.57074507  .00037005  00000+0  10398-2 0  9994
2 67787  51.8793 248.5575 0000875  69.7544 290.3536 15.36166005  4062
KUIPER-00262            
1 67788U 26030AA  26062.56760146  .00037846  00000+0  10525-2 0  9990
2 67788  51.8810 248.5405 0000490 144.9331 215.1688 15.36478514  4152
